NORAD_CAT_ID,OBJECT_NAME,OBJECT_TYPE,EPOCH,MEAN_MOTION,ECCENTRICITY,INCLINATION,RA_OF_ASC_NODE,ARG_OF_PERICENTER,MEAN_ANOMALY,BSTAR,MEAN_MOTION_DOT,MEAN_MOTION_DDOT,TLE_LINE0,TLE_LINE1,TLE_LINE2,SEMIMAJOR_AXIS,PERIOD,APOGEE,PERIGEE,DECAYED
53032.0,STARLINK-4115,PAYLOAD,2024-06-08 21:31:25,15.0883917,0.0001432,53.2157,71.7745,100.2299,259.8855,1.794e-05,-2e-08,0.0,0 STARLINK-4115,1 53032U 22076AY  24160.89681835 -.00000002  00000-0  17940-4 0  9999,2 53032  53.2157  71.7745 0001432 100.2299 259.8855 15.08839170107026,6917.883,95.438,540.739,538.757,0.0
53032.0,STARLINK-4115,PAYLOAD,2024-06-09 00:42:11,15.08842467,0.000113,53.2191,71.18,100.7599,259.3521,4.7149e-05,4.63e-06,0.0,0 STARLINK-4115,1 53032U 22076AY  24161.02929416  .00000463  00000-0  47149-4 0  9999,2 53032  53.2191  71.1800 0001130 100.7599 259.3521 15.08842467106570,6917.873,95.437,540.52,538.956,0.0
53032.0,STARLINK-4115,PAYLOAD,2024-06-09 22:57:35,15.08838094,0.000144,53.219,67.0177,97.0203,263.0953,4.7273e-05,4.64e-06,0.0,0 STARLINK-4115,1 53032U 22076AY  24161.95666071  .00000464  00000-0  47273-4 0  9995,2 53032  53.2190  67.0177 0001440  97.0203 263.0953 15.08838094106712,6917.886,95.438,540.747,538.755,0.0
53032.0,STARLINK-4115,PAYLOAD,2024-06-10 03:43:44,15.08850246,0.0001369,53.2187,66.1264,88.1171,271.9978,-5.5881e-06,-3.77e-06,0.0,0 STARLINK-4115,1 53032U 22076AY  24162.15537520 -.00000377  00000-0 -55881-5 0  9994,2 53032  53.2187  66.1264 0001369  88.1171 271.9978 15.08850246107214,6917.849,95.437,540.661,538.767,0.0
53032.0,STARLINK-4115,PAYLOAD,2024-06-10 10:05:17,15.088447,0.000132,53.2185,64.938,86.0276,274.0867,-5.4025e-05,-1.148e-05,0.0,0 STARLINK-4115,1 53032U 22076AY  24162.42033976 -.00001148  00000-0 -54025-4 0  9995,2 53032  53.2185  64.9380 0001320  86.0276 274.0867 15.08844700107250,6917.866,95.437,540.644,538.818,0.0
53032.0,STARLINK-4115,PAYLOAD,2024-06-10 21:12:59,15.08835727,0.0001427,53.2184,62.8531,98.1706,261.9448,4.2525e-05,3.89e-06,0.0,0 STARLINK-4115,1 53032U 22076AY  24162.88402424  .00000389  00000-0  42525-4 0  9999,2 53032  53.2184  62.8531 0001427  98.1706 261.9448 15.08835727107321,6917.893,95.438,540.746,538.771,0.0
53032.0,STARLINK-4115,PAYLOAD,2024-06-10 22:48:22,15.08837049,0.000146,53.2178,62.5556,96.8585,263.2574,4.3355e-05,4.02e-06,0.0,0 STARLINK-4115,1 53032U 22076AY  24162.95026359  .00000402  00000-0  43355-4 0  9994,2 53032  53.2178  62.5556 0001460  96.8585 263.2574 15.08837049106867,6917.889,95.438,540.764,538.744,0.0
53032.0,STARLINK-4115,PAYLOAD,2024-06-11 00:23:45,15.08842011,0.0001354,53.2187,62.2604,100.2561,259.8584,0.00010842,1.438e-05,0.0,0 STARLINK-4115,1 53032U 22076AY  24163.01649870  .00001438  00000-0  10842-3 0  9995,2 53032  53.2187  62.2604 0001354 100.2561 259.8584 15.08842011107345,6917.874,95.437,540.676,538.803,0.0
53032.0,STARLINK-4115,PAYLOAD,2024-06-11 09:56:03,15.08849039,0.000128,53.2186,60.4763,97.5197,262.594,7.8068e-05,9.55e-06,0.0,0 STARLINK-4115,1 53032U 22076AY  24163.41393340  .00000955  00000-0  78068-4 0  9995,2 53032  53.2186  60.4763 0001280  97.5197 262.5940 15.08849039106939,6917.853,95.437,540.603,538.832,0.0
53032.0,STARLINK-4115,PAYLOAD,2024-06-12 01:49:55,15.08849402,0.0001267,53.2192,57.5009,82.6803,277.4333,0.00012317,1.673e-05,0.0,0 STARLINK-4115,1 53032U 22076AY  24164.07633329  .00001673  00000-0  12317-3 0  9994,2 53032  53.2192  57.5009 0001267  82.6803 277.4333 15.08849402107509,6917.852,95.437,540.593,538.84,0.0
53032.0,STARLINK-4115,PAYLOAD,2024-06-12 09:46:51,15.08836868,0.0001317,53.2199,56.0136,78.038,282.0759,2.67e-05,1.37e-06,0.0,0 STARLINK-4115,1 53032U 22076AY  24164.40754409  .00000137  00000-0  26700-4 0  9990,2 53032  53.2199  56.0136 0001317  78.0380 282.0759 15.08836868107557,6917.89,95.438,540.666,538.844,0.0
53032.0,STARLINK-4115,PAYLOAD,2024-06-12 20:54:34,15.08829831,0.000157,53.2192,53.9349,90.1473,269.9699,-9.2326e-06,-4.35e-06,0.0,0 STARLINK-4115,1 53032U 22076AY  24164.87123222 -.00000435  00000-0 -92326-5 0  9995,2 53032  53.2192  53.9349 0001570  90.1473 269.9699 15.08829831107628,6917.911,95.438,540.863,538.69,0.0
53032.0,STARLINK-4115,PAYLOAD,2024-06-12 22:29:57,15.08834177,0.0001545,53.2188,53.6378,87.0392,273.0777,-6.7063e-05,-1.355e-05,0.0,0 STARLINK-4115,1 53032U 22076AY  24164.93747197 -.00001355  00000-0 -67063-4 0  9996,2 53032  53.2188  53.6378 0001545  87.0392 273.0777 15.08834177107160,6917.898,95.438,540.832,538.694,0.0
53032.0,STARLINK-4115,PAYLOAD,2024-06-13 01:40:43,15.08840263,0.0001669,53.2198,53.0439,92.3032,267.8151,-2.9847e-05,-7.63e-06,0.0,0 STARLINK-4115,1 53032U 22076AY  24165.06994748 -.00000763  00000-0 -29847-4 0  9997,2 53032  53.2198  53.0439 0001669  92.3032 267.8151 15.08840263107654,6917.88,95.438,540.899,538.59,0.0
53032.0,STARLINK-4115,PAYLOAD,2024-06-13 09:37:38,15.08841301,0.0001654,53.2197,51.5564,87.0867,273.0315,1.5298e-05,-4.5e-07,0.0,0 STARLINK-4115,1 53032U 22076AY  24165.40114577 -.00000045  00000-0  15298-4 0  9996,2 53032  53.2197  51.5564 0001654  87.0867 273.0315 15.08841301107235,6917.876,95.437,540.886,538.597,0.0
53032.0,STARLINK-4115,PAYLOAD,2024-06-13 22:20:43,15.08846201,0.0001635,53.2206,49.1769,82.9184,277.1994,2.3292e-05,8.3e-07,0.0,0 STARLINK-4115,1 53032U 22076AY  24165.93106285  .00000083  00000-0  23292-4 0  9995,2 53032  53.2206  49.1769 0001635  82.9184 277.1994 15.08846201107312,6917.861,95.437,540.858,538.595,0.0
53032.0,STARLINK-4115,PAYLOAD,2024-06-14 09:28:25,15.08844226,0.0001406,53.2198,47.0939,86.6546,273.4607,2.2646e-05,7.3e-07,0.0,0 STARLINK-4115,1 53032U 22076AY  24166.39474162  .00000073  00000-0  22646-4 0  9999,2 53032  53.2198  47.0939 0001406  86.6546 273.4607 15.08844226107389,6917.867,95.437,540.705,538.76,0.0
53032.0,STARLINK-4115,PAYLOAD,2024-06-14 22:11:30,15.08843452,0.0001575,53.2188,44.717,88.1689,271.9484,8.1359e-05,1.007e-05,0.0,0 STARLINK-4115,1 53032U 22076AY  24166.92466251  .00001007  00000-0  81359-4 0  9992,2 53032  53.2188  44.7170 0001575  88.1689 271.9484 15.08843452107466,6917.87,95.437,540.824,538.645,0.0
53032.0,STARLINK-4115,PAYLOAD,2024-06-15 09:19:13,15.08840779,0.0001546,53.2179,42.636,85.1346,274.9823,2.2907e-05,7.7e-07,0.0,0 STARLINK-4115,1 53032U 22076AY  24167.38834524  .00000077  00000-0  22907-4 0  9995,2 53032  53.2179  42.6360 0001546  85.1346 274.9823 15.08840779107536,6917.878,95.438,540.813,538.674,0.0
53032.0,STARLINK-4115,PAYLOAD,2024-06-15 22:02:17,15.0884593,0.0001508,53.2185,40.256,88.2274,271.8891,-7.3515e-06,-4.05e-06,0.0,0 STARLINK-4115,1 53032U 22076AY  24167.91826274 -.00000405  00000-0 -73515-5 0  9996,2 53032  53.2185  40.2560 0001508  88.2274 271.8891 15.08845930107615,6917.862,95.437,540.77,538.684,0.0
53032.0,STARLINK-4115,PAYLOAD,2024-06-16 01:13:04,15.08847124,0.0001539,53.2177,39.6607,88.2644,271.8524,2.8078e-06,-2.43e-06,0.0,0 STARLINK-4115,1 53032U 22076AY  24168.05074113 -.00000243  00000-0  28078-5 0  9992,2 53032  53.2177  39.6607 0001539  88.2644 271.8524 15.08847124107637,6917.859,95.437,540.788,538.659,0.0
53032.0,STARLINK-4115,PAYLOAD,2024-06-16 21:53:04,15.08841462,0.0001575,53.2176,35.7935,98.3995,261.7176,7.0049e-05,8.27e-06,0.0,0 STARLINK-4115,1 53032U 22076AY  24168.91186214  .00000827  00000-0  70049-4 0  9994,2 53032  53.2176  35.7935 0001575  98.3995 261.7176 15.08841462107762,6917.876,95.437,540.83,538.651,0.0
53032.0,STARLINK-4115,PAYLOAD,2024-06-17 21:43:52,15.08831182,0.000137,53.2182,31.3375,84.5269,275.588,3.6547e-05,2.94e-06,0.0,0 STARLINK-4115,1 53032U 22076AY  24169.90547320  .00000294  00000-0  36547-4 0  9996,2 53032  53.2182  31.3375 0001370  84.5269 275.5880 15.08831182108385,6917.907,95.438,540.72,538.825,0.0
53032.0,STARLINK-4115,PAYLOAD,2024-06-18 07:16:11,15.08837503,0.0001366,53.2173,29.5492,84.2958,275.819,3.2543e-05,2.3e-06,0.0,0 STARLINK-4115,1 53032U 22076AY  24170.30290995  .00000230  00000-0  32543-4 0  9997,2 53032  53.2173  29.5492 0001366  84.2958 275.8190 15.08837503107975,6917.888,95.438,540.698,538.808,0.0
53032.0,STARLINK-4115,PAYLOAD,2024-06-18 21:34:39,15.08845456,0.0001212,53.2177,26.8735,84.5614,275.5517,9.9379e-05,1.294e-05,0.0,0 STARLINK-4115,1 53032U 22076AY  24170.89906351  .00001294  00000-0  99379-4 0  9992,2 53032  53.2177  26.8735 0001212  84.5614 275.5517 15.08845456108530,6917.864,95.437,540.567,538.89,0.0
53032.0,STARLINK-4115,PAYLOAD,2024-06-19 07:06:58,15.08836969,0.0001286,53.2178,25.0862,78.9946,281.1191,9.2548e-05,1.185e-05,0.0,0 STARLINK-4115,1 53032U 22076AY  24171.29650907  .00001185  00000-0  92548-4 0  9990,2 53032  53.2178  25.0862 0001286  78.9946 281.1191 15.08836969108595,6917.89,95.438,540.644,538.865,0.0
53032.0,STARLINK-4115,PAYLOAD,2024-06-19 21:25:27,15.08835542,0.0001485,53.2189,22.4118,77.3799,282.7359,3.312e-05,2.39e-06,0.0,0 STARLINK-4115,1 53032U 22076AY  24171.89267489  .00000239  00000-0  33120-4 0  9995,2 53032  53.2189  22.4118 0001485  77.3799 282.7359 15.08835542108210,6917.894,95.438,540.786,538.732,0.0
53032.0,STARLINK-4115,PAYLOAD,2024-06-20 13:19:18,15.08834353,0.0001142,53.2186,19.4414,90.1634,269.9489,5.7035e-05,6.2e-06,0.0,0 STARLINK-4115,1 53032U 22076AY  24172.55507550  .00000620  00000-0  57035-4 0  9990,2 53032  53.2186  19.4414 0001142  90.1634 269.9489 15.08834353108314,6917.898,95.438,540.553,538.973,0.0
53032.0,STARLINK-4115,PAYLOAD,2024-06-20 21:16:14,15.08839367,0.00014,53.2189,17.9545,87.5451,272.5702,-5.5851e-05,-1.177e-05,0.0,0 STARLINK-4115,1 53032U 22076AY  24172.88627750 -.00001177  00000-0 -55851-4 0  9995,2 53032  53.2189  17.9545 0001400  87.5451 272.5702 15.08839367108834,6917.882,95.438,540.716,538.779,0.0
53032.0,STARLINK-4115,PAYLOAD,2024-06-21 13:10:05,15.08835595,0.000142,53.219,14.981,86.7119,273.4035,9.2364e-05,1.182e-05,0.0,0 STARLINK-4115,1 53032U 22076AY  24173.54867710  .00001182  00000-0  92364-4 0  9995,2 53032  53.2190  14.9810 0001420  86.7119 273.4035 15.08835595108469,6917.894,95.438,540.741,538.777,0.0
